NORAD_CAT_ID,OBJECT_NAME,OBJECT_TYPE,EPOCH,MEAN_MOTION,ECCENTRICITY,INCLINATION,RA_OF_ASC_NODE,ARG_OF_PERICENTER,MEAN_ANOMALY,BSTAR,MEAN_MOTION_DOT,MEAN_MOTION_DDOT,TLE_LINE0,TLE_LINE1,TLE_LINE2,SEMIMAJOR_AXIS,PERIOD,APOGEE,PERIGEE,DECAYED
54012.0,STARLINK-5126,PAYLOAD,2023-09-06 10:39:09,15.08839564,0.0001468,53.2178,352.698,62.4864,297.6278,0.00023927,3.522e-05,0.0,0 STARLINK-5126,1 54012U 22125BA  23249.44385859  .00003522  00000-0  23927-3 0  9998,2 54012  53.2178 352.6980 0001468  62.4864 297.6278 15.08839564 51435,6917.882,95.438,540.762,538.731,0.0
54012.0,STARLINK-5126,PAYLOAD,2023-09-06 23:22:17,15.08797369,0.0002713,53.2185,350.316,76.1927,283.9366,-0.00016618,-2.929e-05,0.0,0 STARLINK-5126,1 54012U 22125BA  23249.97381855 -.00002929  00000-0 -16618-3 0  9999,2 54012  53.2185 350.3160 0002713  76.1927 283.9366 15.08797369 51560,6918.011,95.44,541.753,537.999,0.0
54012.0,STARLINK-5126,PAYLOAD,2023-09-07 08:54:33,15.08841111,0.0001663,53.218,348.5334,77.5733,282.5445,-5.7536e-05,-1.204e-05,0.0,0 STARLINK-5126,1 54012U 22125BA  23250.37122680 -.00001204  00000-0 -57536-4 0  9994,2 54012  53.2180 348.5334 0001663  77.5733 282.5445 15.08841111 51625,6917.877,95.437,540.892,538.592,0.0
54012.0,STARLINK-5126,PAYLOAD,2023-09-08 10:20:43,15.08862212,9.38e-05,53.2184,343.7758,91.9614,268.1486,-0.00026885,-4.567e-05,0.0,0 STARLINK-5126,1 54012U 22125BA  23251.43105857 -.00004567  00000-0 -26885-3 0  9996,2 54012  53.2184 343.7758 0000938  91.9614 268.1486 15.08862212 51785,6917.812,95.436,540.326,539.029,0.0
54012.0,STARLINK-5126,PAYLOAD,2023-09-08 13:31:29,15.08872047,0.000121,53.2185,343.181,75.8018,284.3108,-0.00035348,-5.914e-05,0.0,0 STARLINK-5126,1 54012U 22125BA  23251.56353390 -.00005914  00000-0 -35348-3 0  9998,2 54012  53.2185 343.1810 0001210  75.8018 284.3108 15.08872047 51757,6917.782,95.436,540.484,538.81,0.0
54012.0,STARLINK-5126,PAYLOAD,2023-09-08 15:06:52,15.08871243,0.0001235,53.2185,342.8838,74.1005,286.0123,-0.0003225,-5.421e-05,0.0,0 STARLINK-5126,1 54012U 22125BA  23251.62977237 -.00005421  00000-0 -32250-3 0  9999,2 54012  53.2185 342.8838 0001235  74.1005 286.0123 15.08871243 51818,6917.785,95.436,540.504,538.796,0.0
54012.0,STARLINK-5126,PAYLOAD,2023-09-09 10:11:31,15.08825464,0.0001306,53.2183,339.3153,82.343,277.7711,0.00010507,1.384e-05,0.0,0 STARLINK-5126,1 54012U 22125BA  23252.42467480  .00001384  00000-0  10507-3 0  9995,2 54012  53.2183 339.3153 0001306  82.3430 277.7711 15.08825464 51936,6917.925,95.438,540.693,538.886,0.0
54012.0,STARLINK-5126,PAYLOAD,2023-09-09 13:22:17,15.08835692,0.0001372,53.2184,338.7199,87.3435,272.7714,0.00010986,1.461e-05,0.0,0 STARLINK-5126,1 54012U 22125BA  23252.55714847  .00001461  00000-0  10986-3 0  9998,2 54012  53.2184 338.7199 0001372  87.3435 272.7714 15.08835692 51902,6917.894,95.438,540.708,538.809,0.0
54012.0,STARLINK-5126,PAYLOAD,2023-09-09 14:57:40,15.0883922,0.0001421,53.2189,338.4219,86.549,273.5664,0.00011144,1.486e-05,0.0,0 STARLINK-5126,1 54012U 22125BA  23252.62338735  .00001486  00000-0  11144-3 0  9998,2 54012  53.2189 338.4219 0001421  86.5490 273.5664 15.08839220 51964,6917.883,95.438,540.731,538.765,0.0
54012.0,STARLINK-5126,PAYLOAD,2023-09-10 13:13:04,15.08849066,0.0001452,53.2177,334.2597,84.2107,275.9051,0.00020487,2.975e-05,0.0,0 STARLINK-5126,1 54012U 22125BA  23253.55074354  .00002975  00000-0  20487-3 0  9999,2 54012  53.2177 334.2597 0001452  84.2107 275.9051 15.08849066 52054,6917.853,95.437,540.722,538.713,0.0
54012.0,STARLINK-5126,PAYLOAD,2023-09-11 09:53:05,15.08840164,0.0001459,53.2174,330.3941,88.898,271.2179,6.6619e-05,7.72e-06,0.0,0 STARLINK-5126,1 54012U 22125BA  23254.41186882  .00000772  00000-0  66619-4 0  9996,2 54012  53.2174 330.3941 0001459  88.8980 271.2179 15.08840164 52237,6917.88,95.438,540.754,538.736,0.0
54012.0,STARLINK-5126,PAYLOAD,2023-09-11 11:28:28,15.08844753,0.0001455,53.2178,330.0966,87.8902,272.2257,0.00012914,1.768e-05,0.0,0 STARLINK-5126,1 54012U 22125BA  23254.47810675  .00001768  00000-0  12914-3 0  9990,2 54012  53.2178 330.0966 0001455  87.8902 272.2257 15.08844753 52195,6917.866,95.437,540.737,538.724,0.0
54012.0,STARLINK-5126,PAYLOAD,2023-09-12 11:19:15,15.08850887,0.0001371,53.2175,325.6373,81.6584,278.4563,0.00013987,1.939e-05,0.0,0 STARLINK-5126,1 54012U 22125BA  23255.47170276  .00001939  00000-0  13987-3 0  9998,2 54012  53.2175 325.6373 0001371  81.6584 278.4563 15.08850887 52349,6917.847,95.437,540.661,538.764,0.0
54012.0,STARLINK-5126,PAYLOAD,2023-09-13 09:34:38,15.08849429,0.0001355,53.2172,321.4747,81.9733,278.1413,0.00013921,1.929e-05,0.0,0 STARLINK-5126,1 54012U 22125BA  23256.39906105  .00001929  00000-0  13921-3 0  9995,2 54012  53.2172 321.4747 0001355  81.9733 278.1413 15.08849429 52538,6917.852,95.437,540.654,538.779,0.0
54012.0,STARLINK-5126,PAYLOAD,2023-09-13 15:56:10,15.08859046,0.0001311,53.2173,320.2845,90.1524,269.9619,0.00027695,4.125e-05,0.0,0 STARLINK-5126,1 54012U 22125BA  23256.66401364  .00004125  00000-0  27695-3 0  9996,2 54012  53.2173 320.2845 0001311  90.1524 269.9619 15.08859046 52573,6917.822,95.436,540.594,538.78,0.0
54012.0,STARLINK-5126,PAYLOAD,2023-09-13 23:53:08,15.08822137,0.0001402,53.217,318.7976,94.196,265.9193,-0.0002291,-3.93e-05,0.0,0 STARLINK-5126,1 54012U 22125BA  23256.99523285 -.00003930  00000-0 -22910-3 0  9999,2 54012  53.2170 318.7976 0001402  94.1960 265.9193 15.08822137 52626,6917.935,95.439,540.77,538.83,0.0
54012.0,STARLINK-5126,PAYLOAD,2023-09-14 11:00:50,15.08816435,0.0001394,53.2172,316.7175,79.5141,280.6008,-0.00026,-4.421e-05,0.0,0 STARLINK-5126,1 54012U 22125BA  23257.45892185 -.00004421  00000-0 -26000-3 0  9999,2 54012  53.2172 316.7175 0001394  79.5141 280.6008 15.08816435 52640,6917.952,95.439,540.782,538.853,0.0
54012.0,STARLINK-5126,PAYLOAD,2023-09-14 20:33:09,15.08821841,0.0001364,53.2179,314.9346,89.9312,270.1836,-0.00010928,-2.026e-05,0.0,0 STARLINK-5126,1 54012U 22125BA  23257.85636378 -.00002026  00000-0 -10928-3 0  9994,2 54012  53.2179 314.9346 0001364  89.9312 270.1836 15.08821841 52706,6917.936,95.439,540.745,538.857,0.0
54012.0,STARLINK-5126,PAYLOAD,2023-09-15 10:51:38,15.08835522,0.0001368,53.2172,312.2572,82.0829,278.0318,0.00030779,4.613e-05,0.0,0 STARLINK-5126,1 54012U 22125BA  23258.45252458  .00004613  00000-0  30779-3 0  9992,2 54012  53.2172 312.2572 0001368  82.0829 278.0318 15.08835522 52840,6917.894,95.438,540.705,538.813,0.0
54012.0,STARLINK-5126,PAYLOAD,2023-09-15 12:27:01,15.08833709,0.0001501,53.2172,311.9601,86.0534,274.063,0.00050034,7.683e-05,0.0,0 STARLINK-5126,1 54012U 22125BA  23258.51876761  .00007683  00000-0  50034-3 0  9994,2 54012  53.2172 311.9601 0001501  86.0534 274.0630 15.08833709 52809,6917.9,95.438,540.803,538.726,0.0
54012.0,STARLINK-5126,PAYLOAD,2023-09-16 09:07:01,15.08870136,0.0001418,53.2163,308.093,75.0556,285.0593,0.00098714,0.0001547,0.0,0 STARLINK-5126,1 54012U 22125BA  23259.37987843  .00015470  00000-0  98714-3 0  9993,2 54012  53.2163 308.0930 0001418  75.0556 285.0593 15.08870136 52984,6917.788,95.436,540.634,538.672,0.0
54012.0,STARLINK-5126,PAYLOAD,2023-09-16 10:42:24,15.08869299,0.0001419,53.2163,307.7957,74.1088,286.006,0.0008464,0.00013219,0.0,0 STARLINK-5126,1 54012U 22125BA  23259.44611725  .00013219  00000-0  84640-3 0  9996,2 54012  53.2163 307.7957 0001419  74.1088 286.0060 15.08869299 52944,6917.791,95.436,540.637,538.674,0.0
54012.0,STARLINK-5126,PAYLOAD,2023-09-16 23:25:29,15.08853816,0.0001484,53.2161,305.4177,78.9056,281.2103,3.7634e-05,3.11e-06,0.0,0 STARLINK-5126,1 54012U 22125BA  23259.97603423  .00000311  00000-0  37634-4 0  9991,2 54012  53.2161 305.4177 0001484  78.9056 281.2103 15.08853816 53078,6917.838,95.437,540.73,538.677,0.0
54012.0,STARLINK-5126,PAYLOAD,2023-09-17 10:33:11,15.08856804,0.0001447,53.2161,303.3363,79.4937,280.6218,0.00048376,7.423e-05,0.0,0 STARLINK-5126,1 54012U 22125BA  23260.43971191  .00007423  00000-0  48376-3 0  9999,2 54012  53.2161 303.3363 0001447  79.4937 280.6218 15.08856804 53097,6917.829,95.436,540.695,538.693,0.0
54012.0,STARLINK-5126,PAYLOAD,2023-09-17 23:16:16,15.08848632,0.0001508,53.2158,300.9574,80.7587,279.3575,0.00020183,2.926e-05,0.0,0 STARLINK-5126,1 54012U 22125BA  23260.96963243  .00002926  00000-0  20183-3 0  9995,2 54012  53.2158 300.9574 0001508  80.7587 279.3575 15.08848632 53220,6917.854,95.437,540.762,538.676,0.0
54012.0,STARLINK-5126,PAYLOAD,2023-09-18 10:23:58,15.088509,0.0001522,53.2161,298.8755,81.1138,279.0026,0.00014096,1.957e-05,0.0,0 STARLINK-5126,1 54012U 22125BA  23261.43331056  .00001957  00000-0  14096-3 0  9998,2 54012  53.2161 298.8755 0001522  81.1138 279.0026 15.08850900 53244,6917.847,95.437,540.765,538.659,0.0
54012.0,STARLINK-5126,PAYLOAD,2023-09-18 19:56:16,15.08849056,0.0001522,53.2159,297.0916,80.8886,279.2278,0.0001484,2.075e-05,0.0,0 STARLINK-5126,1 54012U 22125BA  23261.83075050  .00002075  00000-0  14840-3 0  9990,2 54012  53.2159 297.0916 0001522  80.8886 279.2278 15.08849056 53305,6917.853,95.437,540.771,538.665,0.0
54012.0,STARLINK-5126,PAYLOAD,2023-09-18 23:07:03,15.08844618,0.0001602,53.2158,296.4972,81.3967,278.7206,0.00016563,2.349e-05,0.0,0 STARLINK-5126,1 54012U 22125BA  23261.96323270  .00002349  00000-0  16563-3 0  9992,2 54012  53.2158 296.4972 0001602  81.3967 278.7206 15.08844618 53375,6917.866,95.437,540.84,538.623,0.0
54012.0,STARLINK-5126,PAYLOAD,2023-09-19 08:39:21,15.0885212,0.00017,53.2159,294.7148,75.0123,285.1057,0.00027037,4.019e-05,0.0,0 STARLINK-5126,1 54012U 22125BA  23262.36066913  .00004019  00000-0  27037-3 0  9999,2 54012  53.2159 294.7148 0001700  75.0123 285.1057 15.08852120 53435,6917.843,95.437,540.884,538.532,0.0
54012.0,STARLINK-5126,PAYLOAD,2023-09-20 08:30:09,15.08833914,0.0001511,53.2159,290.2508,110.573,249.5424,-7.6594e-06,-4.1e-06,0.0,0 STARLINK-5126,1 54012U 22125BA  23263.35427685 -.00000410  00000-0 -76594-5 0  9993,2 54012  53.2159 290.2508 0001511 110.5730 249.5424 15.08833914 53583,6917.899,95.438,540.809,538.719,0.0
